NORAD_CAT_ID,OBJECT_NAME,OBJECT_TYPE,EPOCH,MEAN_MOTION,ECCENTRICITY,INCLINATION,RA_OF_ASC_NODE,ARG_OF_PERICENTER,MEAN_ANOMALY,BSTAR,MEAN_MOTION_DOT,MEAN_MOTION_DDOT,TLE_LINE0,TLE_LINE1,TLE_LINE2,SEMIMAJOR_AXIS,PERIOD,APOGEE,PERIGEE,DECAYED
53804.0,STARLINK-4729,PAYLOAD,2024-05-23 11:17:46,15.0884742,0.0002526,53.2171,320.3056,66.4343,293.6915,0.00032519,4.892e-05,0.0,0 STARLINK-4729,1 53804U 22111AH  24144.47067446  .00004892  00000-0  32519-3 0  9996,2 53804  53.2171 320.3056 0002526  66.4343 293.6915 15.08847420 94165,6917.858,95.437,541.47,537.975,0.0
53804.0,STARLINK-4729,PAYLOAD,2024-05-23 20:50:04,15.08845472,0.0001072,53.217,318.5133,90.4932,269.6183,0.00069426,0.0001078,0.0,0 STARLINK-4729,1 53804U 22111AH  24144.86811189  .00010780  00000-0  69426-3 0  9990,2 53804  53.2170 318.5133 0001072  90.4932 269.6183 15.08845472 95037,6917.864,95.437,540.47,538.987,0.0
53804.0,STARLINK-4729,PAYLOAD,2024-05-24 20:40:51,15.08858881,8.21e-05,53.2161,314.0538,117.0465,243.0611,0.00072826,0.00011327,0.0,0 STARLINK-4729,1 53804U 22111AH  24145.86170941  .00011327  00000-0  72826-3 0  9991,2 53804  53.2161 314.0538 0000821 117.0465 243.0611 15.08858881 94371,6917.823,95.436,540.256,539.12,0.0
53804.0,STARLINK-4729,PAYLOAD,2024-05-25 10:59:20,15.08833745,0.0001152,53.2165,311.3745,105.8759,254.236,2.5765e-05,1.22e-06,0.0,0 STARLINK-4729,1 53804U 22111AH  24146.45787548  .00000122  00000-0  25765-4 0  9996,2 53804  53.2165 311.3745 0001152 105.8759 254.2360 15.08833745 94461,6917.9,95.438,540.561,538.968,0.0
53804.0,STARLINK-4729,PAYLOAD,2024-05-26 14:00:54,15.08841,9.09e-05,53.2176,306.3226,87.8041,272.3056,9.6585e-05,1.25e-05,0.0,0 STARLINK-4729,1 53804U 22111AH  24147.58396015  .00001250  00000-0  96585-4 0  9997,2 53804  53.2176 306.3226 0000909  87.8041 272.3056 15.08841000 95448,6917.877,95.437,540.371,539.113,0.0
53804.0,STARLINK-4729,PAYLOAD,2024-05-26 17:11:40,15.08841309,0.0001028,53.2183,305.7282,65.5043,294.6057,0.00043134,6.584e-05,0.0,0 STARLINK-4729,1 53804U 22111AH  24147.71644210  .00006584  00000-0  43134-3 0  9991,2 53804  53.2183 305.7282 0001028  65.5043 294.6057 15.08841309 94651,6917.876,95.437,540.453,539.03,0.0
53804.0,STARLINK-4729,PAYLOAD,2024-05-27 13:51:41,15.08844103,0.0001091,53.2191,301.8642,74.4679,285.6433,0.00023117,3.394e-05,0.0,0 STARLINK-4729,1 53804U 22111AH  24148.57756049  .00003394  00000-0  23117-3 0  9995,2 53804  53.2191 301.8642 0001091  74.4679 285.6433 15.08844103 95598,6917.868,95.437,540.488,538.978,0.0
53804.0,STARLINK-4729,PAYLOAD,2024-05-27 17:02:27,15.08845417,0.0001133,53.2192,301.2691,73.4252,286.6865,0.00022292,3.262e-05,0.0,0 STARLINK-4729,1 53804U 22111AH  24148.71003977  .00003262  00000-0  22292-3 0  9993,2 53804  53.2192 301.2691 0001133  73.4252 286.6865 15.08845417 94802,6917.864,95.437,540.513,538.945,0.0
53804.0,STARLINK-4729,PAYLOAD,2024-05-28 13:42:27,15.08845061,0.0001043,53.2187,297.4036,78.2979,281.813,6.7807e-05,7.92e-06,0.0,0 STARLINK-4729,1 53804U 22111AH  24149.57115662  .00000792  00000-0  67807-4 0  9990,2 53804  53.2187 297.4036 0001043  78.2979 281.8130 15.08845061 95745,6917.865,95.437,540.451,539.008,0.0
53804.0,STARLINK-4729,PAYLOAD,2024-05-28 16:53:14,15.08846246,0.0001054,53.2188,296.8088,84.3072,275.804,8.6992e-05,1.097e-05,0.0,0 STARLINK-4729,1 53804U 22111AH  24149.70363541  .00001097  00000-0  86992-4 0  9991,2 53804  53.2188 296.8088 0001054  84.3072 275.8040 15.08846246 95761,6917.861,95.437,540.455,538.997,0.0
53804.0,STARLINK-4729,PAYLOAD,2024-05-29 13:33:15,15.08836367,0.0001065,53.2191,292.9422,97.6703,262.4411,1.9781e-05,2.7e-07,0.0,0 STARLINK-4729,1 53804U 22111AH  24150.56476403  .00000027  00000-0  19781-4 0  9993,2 53804  53.2191 292.9422 0001065  97.6703 262.4411 15.08836367 95086,6917.891,95.438,540.493,539.02,0.0
53804.0,STARLINK-4729,PAYLOAD,2024-05-29 15:08:38,15.08835864,0.0001059,53.2189,292.6448,97.4365,262.6747,2.4144e-06,-2.49e-06,0.0,0 STARLINK-4729,1 53804U 22111AH  24150.63100406 -.00000249  00000-0  24144-5 0  9995,2 53804  53.2189 292.6448 0001059  97.4365 262.6747 15.08835864 95909,6917.893,95.438,540.491,539.025,0.0
53804.0,STARLINK-4729,PAYLOAD,2024-05-30 13:24:01,15.08847346,0.0001051,53.2193,288.479,100.7327,259.3783,4.9214e-05,4.96e-06,0.0,0 STARLINK-4729,1 53804U 22111AH  24151.55835633  .00000496  00000-0  49214-4 0  9991,2 53804  53.2193 288.4790 0001051 100.7327 259.3783 15.08847346 95232,6917.858,95.437,540.45,538.996,0.0
53804.0,STARLINK-4729,PAYLOAD,2024-05-30 18:10:10,15.08856259,0.0001203,53.2187,287.5869,92.1311,267.9819,9.04e-05,1.152e-05,0.0,0 STARLINK-4729,1 53804U 22111AH  24151.75706946  .00001152  00000-0  90400-4 0  9990,2 53804  53.2187 287.5869 0001203  92.1311 267.9819 15.08856259 95269,6917.831,95.437,540.528,538.863,0.0
53804.0,STARLINK-4729,PAYLOAD,2024-05-31 13:14:49,15.08842708,0.0001207,53.2187,284.0192,72.4118,287.7006,0.00013003,1.782e-05,0.0,0 STARLINK-4729,1 53804U 22111AH  24152.55195776  .00001782  00000-0  13003-3 0  9994,2 53804  53.2187 284.0192 0001207  72.4118 287.7006 15.08842708 95385,6917.872,95.437,540.572,538.902,0.0
53804.0,STARLINK-4729,PAYLOAD,2024-05-31 14:50:12,15.08842345,0.0001204,53.219,283.722,77.7787,282.334,0.00012859,1.759e-05,0.0,0 STARLINK-4729,1 53804U 22111AH  24152.61819759  .00001759  00000-0  12859-3 0  9997,2 53804  53.2190 283.7220 0001204  77.7787 282.3340 15.08842345 96205,6917.873,95.437,540.571,538.905,0.0
53804.0,STARLINK-4729,PAYLOAD,2024-05-31 18:00:58,15.08848899,0.0001022,53.2185,283.127,74.3482,285.7623,0.00015304,2.149e-05,0.0,0 STARLINK-4729,1 53804U 22111AH  24152.75067175  .00002149  00000-0  15304-3 0  9991,2 53804  53.2185 283.1270 0001022  74.3482 285.7623 15.08848899 95414,6917.853,95.437,540.425,539.011,0.0
53804.0,STARLINK-4729,PAYLOAD,2024-06-01 13:05:36,15.08835987,8.76e-05,53.2191,279.5532,95.7263,264.3829,-1.569e-05,-5.37e-06,0.0,0 STARLINK-4729,1 53804U 22111AH  24153.54556252 -.00000537  00000-0 -15690-4 0  9998,2 53804  53.2191 279.5532 0000876  95.7263 264.3829 15.08835987 95539,6917.893,95.438,540.364,539.152,0.0
53804.0,STARLINK-4729,PAYLOAD,2024-06-01 14:40:59,15.08836349,0.0001012,53.2185,279.2588,81.4271,278.6836,-1.9475e-05,-5.98e-06,0.0,0 STARLINK-4729,1 53804U 22111AH  24153.61180362 -.00000598  00000-0 -19475-4 0  9993,2 53804  53.2185 279.2588 0001012  81.4271 278.6836 15.08836349 96354,6917.892,95.438,540.457,539.056,0.0
53804.0,STARLINK-4729,PAYLOAD,2024-06-02 11:20:59,15.08846523,0.000116,53.2189,275.3938,116.9475,243.1635,2.347e-05,8.6e-07,0.0,0 STARLINK-4729,1 53804U 22111AH  24154.47291590  .00000086  00000-0  23470-4 0  9994,2 53804  53.2189 275.3938 0001160 116.9475 243.1635 15.08846523 95671,6917.86,95.437,540.528,538.923,0.0
53804.0,STARLINK-4729,PAYLOAD,2024-06-02 14:31:46,15.08848693,0.000114,53.2189,274.7987,94.1704,265.9419,6.0449e-05,6.75e-06,0.0,0 STARLINK-4729,1 53804U 22111AH  24154.60539431  .00000675  00000-0  60449-4 0  9999,2 53804  53.2189 274.7987 0001140  94.1704 265.9419 15.08848693 96503,6917.854,95.437,540.507,538.93,0.0
53804.0,STARLINK-4729,PAYLOAD,2024-06-03 11:11:47,15.0882252,0.0001042,53.2185,270.9336,105.5167,254.594,0.00030119,4.507e-05,0.0,0 STARLINK-4729,1 53804U 22111AH  24155.46652531  .00004507  00000-0  30119-3 0  9999,2 53804  53.2185 270.9336 0001042 105.5167 254.5940 15.08822520 95824,6917.934,95.439,540.52,539.078,0.0
53804.0,STARLINK-4729,PAYLOAD,2024-06-03 14:22:33,15.08838297,8.53e-05,53.2195,270.3415,87.063,273.046,7.4368e-05,8.96e-06,0.0,0 STARLINK-4729,1 53804U 22111AH  24155.59900428  .00000896  00000-0  74368-4 0  9996,2 53804  53.2195 270.3415 0000853  87.0630 273.0460 15.08838297 96658,6917.886,95.438,540.341,539.16,0.0
53804.0,STARLINK-4729,PAYLOAD,2024-06-04 11:02:34,15.08844365,9.27e-05,53.2178,266.4753,92.1914,267.9184,9.6092e-05,1.242e-05,0.0,0 STARLINK-4729,1 53804U 22111AH  24156.46012023  .00001242  00000-0  96092-4 0  9992,2 53804  53.2178 266.4753 0000927  92.1914 267.9184 15.08844365 96786,6917.867,95.437,540.373,539.091,0.0
53804.0,STARLINK-4729,PAYLOAD,2024-06-04 17:24:06,15.08850479,0.0001304,53.2141,265.281,96.378,263.736,9.7094e-05,1.258e-05,0.0,0 STARLINK-4729,1 53804U 22111AH  24156.72507527  .00001258  00000-0  97094-4 0  9999,2 53804  53.2141 265.2810 0001304  96.3780 263.7360 15.08850479 96013,6917.848,95.437,540.615,538.811,0.0
53804.0,STARLINK-4729,PAYLOAD,2024-06-04 23:45:39,15.08837319,9.86e-05,53.2168,264.0948,76.6321,283.4781,8.3161e-05,1.036e-05,0.0,0 STARLINK-4729,1 53804U 22111AH  24156.99004423  .00001036  00000-0  83161-4 0  9999,2 53804  53.2168 264.0948 0000986  76.6321 283.4781 15.08837319 96056,6917.889,95.438,540.436,539.071,0.0
53804.0,STARLINK-4729,PAYLOAD,2024-06-05 14:04:08,15.08839908,0.0001128,53.2177,261.4234,98.2076,261.9045,7.1852e-05,8.56e-06,0.0,0 STARLINK-4729,1 53804U 22111AH  24157.58620372  .00000856  00000-0  71852-4 0  9995,2 53804  53.2177 261.4234 0001128  98.2076 261.9045 15.08839908 96950,6917.881,95.438,540.526,538.965,0.0
53804.0,STARLINK-4729,PAYLOAD,2024-06-06 13:54:54,15.08847845,9.48e-05,53.2154,256.9552,71.3424,288.7671,0.00017999,2.579e-05,0.0,0 STARLINK-4729,1 53804U 22111AH  24158.57980153  .00002579  00000-0  17999-3 0  9996,2 53804  53.2154 256.9552 0000948  71.3424 288.7671 15.08847845 96293,6917.856,95.437,540.377,539.066,0.0
53804.0,STARLINK-4729,PAYLOAD,2024-06-07 15:21:05,15.08851697,0.0001159,53.2168,252.2,112.8446,247.2669,0.00027575,4.105e-05,0.0,0 STARLINK-4729,1 53804U 22111AH  24159.63964227  .00004105  00000-0  27575-3 0  9996,2 53804  53.2168 252.2000 0001159 112.8446 247.2669 15.08851697 96450,6917.845,95.437,540.511,538.908,0.0
53804.0,STARLINK-4729,PAYLOAD,2024-06-08 05:39:33,15.08843368,0.0001095,53.2151,249.5252,83.6318,276.4798,0.00021379,3.117e-05,0.0,0 STARLINK-4729,1 53804U 22111AH  24160.23580546  .00003117  00000-0  21379-3 0  9990,2 53804  53.2151 249.5252 0001095  83.6318 276.4798 15.08843368 96545,6917.87,95.437,540.493,538.978,0.0
